{
  "type": "FeatureCollection",
  "features": [
    {
      "type": "Feature",
      "properties": {
        "norad_id": 34886,
        "name": "COSMOS 2251 DEB",
        "group": "cosmos-2251-debris",
        "lat": 73.22267989032741,
        "lon": -102.47444257711409,
        "alt_km": 438.3395997333919,
        "timestamp": "2025-12-10T23:33:13.213391+00:00",
        "meta_object_name": "COSMOS 2251 DEB",
        "meta_object_id": "1993-036ACZ",
        "meta_epoch": "2025-12-06T20:50:12.525792",
        "meta_mean_motion": 15.37603061,
        "meta_eccentricity": 0.00307569,
        "meta_inclination": 73.9508,
        "meta_ra_of_asc_node": 193.7093,
        "meta_arg_of_pericenter": 18.7929,
        "meta_mean_anomaly": 341.4404,
        "meta_ephemeris_type": 0,
        "meta_classification_type": "U",
        "meta_norad_cat_id": 34886,
        "meta_element_set_no": 999,
        "meta_rev_at_epoch": 62908,
        "meta_bstar": 0.0027638496,
        "meta_mean_motion_dot": 0.00105044,
        "meta_mean_motion_ddot": 0,
        "tle_line1": "1 34886U 93036ACZ 25340.86820053  .00105044  00000+0  27638-2 0  9997",
        "tle_line2": "2 34886  73.9508 193.7093 0030756  18.7929 341.4404 15.37603061629089"
      },
      "geometry": {
        "type": "Point",
        "coordinates": [
          -102.47444257711409,
          73.22267989032741
        ]
      }
    },
    {
      "type": "Feature",
      "properties": {
        "norad_id": 34907,
        "name": "COSMOS 2251 DEB",
        "group": "cosmos-2251-debris",
        "lat": -18.01051680934633,
        "lon": 46.8831856237987,
        "alt_km": 430.994315423658,
        "timestamp": "2025-12-10T23:33:13.213400+00:00",
        "meta_object_name": "COSMOS 2251 DEB",
        "meta_object_id": "1993-036ADC",
        "meta_epoch": "2025-12-09T11:48:40.868352",
        "meta_mean_motion": 15.4100094,
        "meta_eccentricity": 0.00199579,
        "meta_inclination": 73.9697,
        "meta_ra_of_asc_node": 55.4845,
        "meta_arg_of_pericenter": 346.4549,
        "meta_mean_anomaly": 13.612,
        "meta_ephemeris_type": 0,
        "meta_classification_type": "U",
        "meta_norad_cat_id": 34907,
        "meta_element_set_no": 999,
        "meta_rev_at_epoch": 87923,
        "meta_bstar": 0.0091510142,
        "meta_mean_motion_dot": 0.00400025,
        "meta_mean_motion_ddot": 0,
        "tle_line1": "1 34907U 93036ADC 25343.49213968  .00400025  00000+0  91510-2 0  9991",
        "tle_line2": "2 34907  73.9697  55.4845 0019957 346.4549  13.6120 15.41000940879239"
      },
      "geometry": {
        "type": "Point",
        "coordinates": [
          46.8831856237987,
          -18.01051680934633
        ]
      }
    },
    {
      "type": "Feature",
      "properties": {
        "norad_id": 34908,
        "name": "COSMOS 2251 DEB",
        "group": "cosmos-2251-debris",
        "lat": -19.63063526682636,
        "lon": 21.038172999297352,
        "alt_km": 759.3543118434754,
        "timestamp": "2025-12-10T23:33:13.213409+00:00",
        "meta_object_name": "COSMOS 2251 DEB",
        "meta_object_id": "1993-036ADD",
        "meta_epoch": "2025-12-09T02:40:40.417824",
        "meta_mean_motion": 14.37380886,
        "meta_eccentricity": 0.0039928,
        "meta_inclination": 74.0591,
        "meta_ra_of_asc_node": 30.3236,
        "meta_arg_of_pericenter": 47.6348,
        "meta_mean_anomaly": 340.778,
        "meta_ephemeris_type": 0,
        "meta_classification_type": "U",
        "meta_norad_cat_id": 34908,
        "meta_element_set_no": 999,
        "meta_rev_at_epoch": 87227,
        "meta_bstar": 0.00063868598,
        "meta_mean_motion_dot": 1.9e-05,
        "meta_mean_motion_ddot": 0,
        "tle_line1": "1 34908U 93036ADD 25343.11157891  .00001900  00000+0  63869-3 0  9999",
        "tle_line2": "2 34908  74.0591  30.3236 0039928  47.6348 340.7780 14.37380886872275"
      },
      "geometry": {
        "type": "Point",
        "coordinates": [
          21.038172999297352,
          -19.63063526682636
        ]
      }
    },
    {
      "type": "Feature",
      "properties": {
        "norad_id": 34909,
        "name": "COSMOS 2251 DEB",
        "group": "cosmos-2251-debris",
        "lat": -36.43738701671188,
        "lon": -87.7531997847311,
        "alt_km": 582.8665058831139,
        "timestamp": "2025-12-10T23:33:13.213418+00:00",
        "meta_object_name": "COSMOS 2251 DEB",
        "meta_object_id": "1993-036ADE",
        "meta_epoch": "2025-12-10T14:26:38.500800",
        "meta_mean_motion": 14.77803538,
        "meta_eccentricity": 0.00846874,
        "meta_inclination": 74.0144,
        "meta_ra_of_asc_node": 80.7743,
        "meta_arg_of_pericenter": 217.0857,
        "meta_mean_anomaly": 142.445,
        "meta_ephemeris_type": 0,
        "meta_classification_type": "U",
        "meta_norad_cat_id": 34909,
        "meta_element_set_no": 999,
        "meta_rev_at_epoch": 66820,
        "meta_bstar": 0.0010159211,
        "meta_mean_motion_dot": 7.719e-05,
        "meta_mean_motion_ddot": 0,
        "tle_line1": "1 34909U 93036ADE 25344.60183450  .00007719  00000+0  10159-2 0  9992",
        "tle_line2": "2 34909  74.0144  80.7743 0084687 217.0857 142.4450 14.77803538668207"
      },
      "geometry": {
        "type": "Point",
        "coordinates": [
          -87.7531997847311,
          -36.43738701671188
        ]
      }
    },
    {
      "type": "Feature",
      "properties": {
        "norad_id": 34910,
        "name": "COSMOS 2251 DEB",
        "group": "cosmos-2251-debris",
        "lat": -13.477939219205759,
        "lon": 100.22851616871333,
        "alt_km": 1299.8013948085518,
        "timestamp": "2025-12-10T23:33:13.213428+00:00",
        "meta_object_name": "COSMOS 2251 DEB",
        "meta_object_id": "1993-036ADF",
        "meta_epoch": "2025-12-04T03:27:09.174816",
        "meta_mean_motion": 13.3765034,
        "meta_eccentricity": 0.04679235,
        "meta_inclination": 73.8763,
        "meta_ra_of_asc_node": 114.9889,
        "meta_arg_of_pericenter": 235.2756,
        "meta_mean_anomaly": 311.3517,
        "meta_ephemeris_type": 0,
        "meta_classification_type": "U",
        "meta_norad_cat_id": 34910,
        "meta_element_set_no": 999,
        "meta_rev_at_epoch": 81409,
        "meta_bstar": 0.0018660381,
        "meta_mean_motion_dot": 1.821e-05,
        "meta_mean_motion_ddot": 0,
        "tle_line1": "1 34910U 93036ADF 25338.14385619  .00001821  00000+0  18660-2 0  9990",
        "tle_line2": "2 34910  73.8763 114.9889 0467923 235.2756 311.3517 13.37650340814099"
      },
      "geometry": {
        "type": "Point",
        "coordinates": [
          100.22851616871333,
          -13.477939219205759
        ]
      }
    },
    {
      "type": "Feature",
      "properties": {
        "norad_id": 34911,
        "name": "COSMOS 2251 DEB",
        "group": "cosmos-2251-debris",
        "lat": 65.62035707323541,
        "lon": -72.7503109250341,
        "alt_km": 656.3022638633856,
        "timestamp": "2025-12-10T23:33:13.213437+00:00",
        "meta_object_name": "COSMOS 2251 DEB",
        "meta_object_id": "1993-036ADG",
        "meta_epoch": "2025-12-10T12:31:27.789888",
        "meta_mean_motion": 14.59366322,
        "meta_eccentricity": 0.00835043,
        "meta_inclination": 74.0415,
        "meta_ra_of_asc_node": 248.9708,
        "meta_arg_of_pericenter": 14.9405,
        "meta_mean_anomaly": 162.248,
        "meta_ephemeris_type": 0,
        "meta_classification_type": "U",
        "meta_norad_cat_id": 34911,
        "meta_element_set_no": 999,
        "meta_rev_at_epoch": 88554,
        "meta_bstar": 0.00026966238,
        "meta_mean_motion_dot": 1.308e-05,
        "meta_mean_motion_ddot": 0,
        "tle_line1": "1 34911U 93036ADG 25344.52184942  .00001308  00000+0  26966-3 0  9995",
        "tle_line2": "2 34911  74.0415 248.9708 0083504  14.9405 162.2480 14.59366322885546"
      },
      "geometry": {
        "type": "Point",
        "coordinates": [
          -72.7503109250341,
          65.62035707323541
        ]
      }
    },
    {
      "type": "Feature",
      "properties": {
        "norad_id": 34913,
        "name": "COSMOS 2251 DEB",
        "group": "cosmos-2251-debris",
        "lat": -47.42370635721123,
        "lon": 123.88247118123643,
        "alt_km": 796.8162168460794,
        "timestamp": "2025-12-10T23:33:13.213445+00:00",
        "meta_object_name": "COSMOS 2251 DEB",
        "meta_object_id": "1993-036ADJ",
        "meta_epoch": "2025-12-10T13:00:18.152928",
        "meta_mean_motion": 14.346364,
        "meta_eccentricity": 0.00202635,
        "meta_inclination": 74.0283,
        "meta_ra_of_asc_node": 286.5252,
        "meta_arg_of_pericenter": 37.1811,
        "meta_mean_anomaly": 83.6827,
        "meta_ephemeris_type": 0,
        "meta_classification_type": "U",
        "meta_norad_cat_id": 34913,
        "meta_element_set_no": 999,
        "meta_rev_at_epoch": 65156,
        "meta_bstar": 9.4174652e-05,
        "meta_mean_motion_dot": 2.41e-06,
        "meta_mean_motion_ddot": 0,
        "tle_line1": "1 34913U 93036ADJ 25344.54187677  .00000241  00000+0  94175-4 0  9990",
        "tle_line2": "2 34913  74.0283 286.5252 0020263  37.1811  83.6827 14.34636400651568"
      },
      "geometry": {
        "type": "Point",
        "coordinates": [
          123.88247118123643,
          -47.42370635721123
        ]
      }
    }
  ]
}